365P/PANSTARRS,e,9.8498,86.6554,67.4145,3.156237,0.1757720,0.58168552,114.6850,07/23.0/2025,2000,g 17.0,4.0
# From MPC114610
366P/Spacewatch,e,8.8566,70.7229,152.9914,3.500384,0.1504979,0.34865737,26.0540,07/23.0/2025,2000,g 15.0,4.0
# From MPC112395
367P/Catalina,e,8.4590,58.6605,172.6778,3.511689,0.1497718,0.28014495,28.8298,07/23.0/2025,2000,g 17.5,2.0
# From MPC114610
368P/NEAT,e,15.4825,257.8564,118.9863,5.535403,0.0756798,0.62556238,189.4217,07/23.0/2025,2000,g 14.0,4.0
# From MPC114610
369P/Hill,e,10.3191,47.2822,13.2465,4.378465,0.1075775,0.55589134,265.4420,07/23.0/2025,2000,g 15.0,4.0
# From MPEC 2021-F20
370P/NEAT,e,19.4159,55.0870,356.7898,6.440514,0.0603008,0.61509820,156.6165,07/23.0/2025,2000,g 13.0,4.0
# From MPC114610
371P/LINEAR-Skiff,e,17.3834,67.2837,308.5663,4.180527,0.1153075,0.47654450,285.9725,07/23.0/2025,2000,g 16.0,4.0
# From MPEC 2020-K19
372P/McNaught,e,9.5035,27.5487,325.9463,4.513085,0.1028002,0.15117218,253.4813,07/23.0/2025,2000,g 13.5,4.0
# From MPEC 2021-F20
373P/Rinner,e,13.7708,231.9292,221.1473,3.796771,0.1332240,0.39382685,305.5165,07/23.0/2025,2000,g 14.5,4.0
# From MPC114610
374P/Larson,e,10.7600,7.8607,51.5961,4.971328,0.0889192,0.46359425,211.7359,07/23.0/2025,2000,g 14.0,4.0
# From MPEC 2021-F20
375P/Hill,e,17.3758,359.8243,119.4628,5.545346,0.0754764,0.66029370,181.3722,07/23.0/2025,2000,g 16.0,4.0
# From MPEC 2024-RQ6
376P/LONEOS,e,1.1662,312.8530,285.3325,5.754977,0.0713902,0.51375876,152.7871,07/23.0/2025,2000,g 12.5,4.0
# From MPEC 2022-N37
377P/Scotti,e,9.0339,225.9128,354.9079,6.694604,0.0569006,0.25151009,104.6621,07/23.0/2025,2000,g  9.5,4.0
# From MPEC 2025-A40
378P/McNaught,e,19.1598,93.7912,193.2936,6.286708,0.0625272,0.46323026,109.4943,07/23.0/2025,2000,g 12.0,4.0
# From MPC115889
379P/Spacewatch,e,12.4368,30.4450,184.7108,3.482921,0.1516312,0.35016919,327.4227,07/23.0/2025,2000,g 15.0,4.0
# From MPEC 2023-C45
380P/PANSTARRS,e,8.0359,127.6853,87.6318,4.445878,0.1051400,0.33356656,243.0616,07/23.0/2025,2000,g 12.5,4.0
# From MPEC 2021-J28
381P/LINEAR-Spacewatch,e,28.3340,173.3241,173.8459,7.145172,0.0516042,0.68046497,109.8197,07/23.0/2025,2000,g 17.5,2.0
# From MPC182891
382P/Larson,e,8.2793,169.9310,162.5139,5.887046,0.0690014,0.26455826,94.1488,07/23.0/2025,2000,g  8.0,4.0
# From MPEC 2022-OB6
383P/Christensen,e,12.3164,207.8547,133.7197,3.549150,0.1474068,0.59845860,309.2051,07/23.0/2025,2000,g 18.0,4.0
# From MPC182891
384P/Kowalski,e,7.2842,354.1875,37.6990,2.897284,0.1998561,0.61624506,61.3329,07/23.0/2025,2000,g 19.5,4.0
# From MPEC 2021-F20
385P/Hill,e,16.8218,357.0298,44.4702,4.289145,0.1109553,0.40181618,236.9578,07/23.0/2025,2000,g 13.0,4.0
# From MPEC 2021-L04
386P/PANSTARRS,e,15.2474,134.9161,353.1089,4.048873,0.1209770,0.41755284,217.4010,07/23.0/2025,2000,g 14.5,4.0
# From MPEC 2021-J28
387P/Boattini,e,8.9379,259.2388,162.8551,4.797496,0.0937955,0.73695642,201.0893,07/23.0/2025,2000,g 15.0,4.0
# From MPEC 2021-S45
388P/Gibbs,e,23.8762,37.0050,42.3779,5.240814,0.0821497,0.61935543,179.7495,07/23.0/2025,2000,g 13.0,4.0
# From MPEC 2022-OB6
389P/Siding Spring,e,160.0785,218.8458,249.3140,5.629739,0.0737856,0.70578208,149.8301,07/23.0/2025,2000,g 16.0,4.0
# From MPEC 2024-EF7
390P/Gibbs,e,18.5202,152.1957,232.5664,5.818133,0.0702310,0.70658902,136.8616,07/23.0/2025,2000,g 12.0,4.0
# From MPEC 2021-F20
391P/Kowalski,e,21.2566,124.7722,186.8962,4.691917,0.0969792,0.11834756,260.7923,07/23.0/2025,2000,g  8.0,4.0
# From MPEC 2021-J28
392P/LINEAR,e,4.9280,24.7945,71.9775,6.142631,0.0647400,0.68394659,125.3957,07/23.0/2025,2000,g 14.5,4.0
# From MPC182892
393P/Spacewatch-Hill,e,16.7828,36.4026,329.1959,4.800856,0.0936971,0.11901256,196.1033,07/23.0/2025,2000,g 11.0,4.0
# From MPEC 2020-KB7
394P/PANSTARRS,e,8.5279,98.0989,54.4624,4.326202,0.1095327,0.36843269,225.7052,07/23.0/2025,2000,g 16.0,2.4
# From MPC182892
395P/Catalina-NEAT,e,3.5686,220.9562,100.7376,7.203559,0.0509781,0.41111865,63.6563,07/23.0/2025,2000,g 10.0,4.0
# From MPEC 2020-KB7
396P/,e,5.4429,136.6058,8.3100,6.798568,0.0556004,0.41707292,119.7966,07/23.0/2025,2000,g 12.0,4.0
# From MPEC 2022-OB6
397P/Lemmon,e,10.9193,8.2058,14.5899,3.832315,0.1313749,0.40453789,244.2293,07/23.0/2025,2000,g 12.0,4.0
# From MPEC 2021-L04
398P/Boattini,e,11.0279,320.1345,127.5552,3.124278,0.1784759,0.58377292,297.5466,07/23.0/2025,2000,g 15.5,4.0
# From MPEC 2023-XP6
399P/PANSTARRS,e,13.3156,207.1141,214.4556,3.793663,0.1333878,0.44725940,202.9232,07/23.0/2025,2000,g 14.0,4.0
# From MPEC 2024-TD8
400P/PANSTARRS,e,10.9250,176.3438,238.9598,3.561954,0.1466127,0.40957484,237.8629,07/23.0/2025,2000,g 15.5,2.8
# From MPEC 2022-K19
401P/McNaught,e,12.8006,359.9212,309.3428,5.776442,0.0709927,0.57832474,146.1818,07/23.0/2025,2000,g 12.5,4.0
# From MPEC 2024-LE0
402P/LINEAR,e,30.8289,123.0418,327.0086,7.041671,0.0527461,0.44000661,69.3563,07/23.0/2025,2000,g  9.0,4.0
# From MPEC 2021-J28
403P/Catalina,e,12.3324,277.5600,163.9776,5.432921,0.0778312,0.50420896,137.6877,07/23.0/2025,2000,g 12.0,4.0
# From MPC184420
404P/Bressi,e,9.8041,260.0399,168.9414,4.717762,0.0961834,0.12408645,60.6614,07/23.0/2025,2000,g 10.0,4.0
# From MPEC 2021-L04
405P/Lemmon,e,9.3793,112.1938,3.3116,3.603698,0.1440727,0.69022498,240.6252,07/23.0/2025,2000,g 17.5,4.0
# From MPEC 2021-F20
406P/Gibbs,e,1.2097,352.3835,11.5616,3.579573,0.1455316,0.54098883,257.8500,07/23.0/2025,2000,g 17.0,4.0
# From MPEC 2022-YN2
407P/PANSTARRS-Fuls,e,4.8751,80.2451,93.0707,3.494272,0.1508930,0.37571249,304.5388,07/23.0/2025,2000,g 14.0,4.0
# From MPC184420
408P/Novichonok-Gerke,e,19.3510,189.4515,226.7016,4.746004,0.0953261,0.26836942,97.3227,07/23.0/2025,2000,g 11.0,4.0
# From MPEC 2022-ED3
409P/LONEOS-Hill,e,17.1500,143.6399,15.0402,6.032669,0.0665181,0.71027892,108.8406,07/23.0/2025,2000,g 14.0,4.0
# From MPEC 2022-M21
410P/NEAT-LINEAR,e,9.3881,139.9286,313.2874,6.654329,0.0574179,0.51171473,85.5064,07/23.0/2025,2000,g 12.5,4.0
# From MPC184420
411P/Christensen,e,12.3886,77.6509,46.5734,5.811739,0.0703469,0.58184154,115.3110,07/23.0/2025,2000,g 13.5,4.0
# From MPEC 2021-F20
412P/WISE,e,8.9291,0.8401,155.8510,3.111861,0.1795452,0.47906513,304.0498,07/23.0/2025,2000,g 17.0,4.0
# From MPC184420
413P/Larson,e,15.9577,38.9464,186.7248,3.736067,0.1364841,0.41767789,200.5465,07/23.0/2025,2000,g 14.0,4.0
# From MPEC 2024-JU4
414P/STEREO,e,23.4073,257.8152,210.7111,2.792144,0.2112503,0.81227568,346.1994,07/23.0/2025,2000,g 19.0,4.0
# From MPEC 2022-J42
415P/Tenagra,e,31.8109,160.2575,345.8883,4.108017,0.1183739,0.19557357,191.7127,07/23.0/2025,2000,g 12.0,4.0
# From MPC184420
416P/Scotti,e,3.3636,355.7290,134.4588,4.006304,0.1229103,0.45551997,198.7616,07/23.0/2025,2000,g 15.5,4.0
# From MPEC 2021-W31
417P/NEOWISE,e,9.9350,111.9292,126.4782,3.350851,0.1606835,0.55283853,253.9378,07/23.0/2025,2000,g 16.5,4.0
# From MPEC 2022-TA0
418P/LINEAR,e,5.7810,277.6153,307.3311,5.089673,0.0858360,0.66391524,118.0805,07/23.0/2025,2000,g 13.0,4.0
# From MPEC 2023-UR6
419P/PANSTARRS,e,2.7943,40.4044,187.8301,3.534882,0.1483002,0.27336549,203.0185,07/23.0/2025,2000,g 12.5,4.0
# From MPEC 2024-L77
420P/Hill,e,14.5047,173.4982,156.4033,5.479265,0.0768459,0.49508626,89.3033,07/23.0/2025,2000,g 11.5,4.0
# From MPEC 2021-W31
421P/McNaught,e,10.0756,55.3288,259.8545,5.074610,0.0862184,0.67437856,141.5336,07/23.0/2025,2000,g 14.0,4.0
# From MPEC 2024-N80
422P/Christensen,e,39.5801,36.0112,304.7546,6.273696,0.0627219,0.50563826,80.8729,07/23.0/2025,2000,g 11.0,4.0
# From MPEC 2023-FK0
423P/Lemmon,e,8.3422,33.3019,80.9559,6.182649,0.0641124,0.12279968,89.4375,07/23.0/2025,2000,g  8.0,4.0
# From MPEC 2022-CN4
424P/LaSagra,e,8.6813,51.2140,312.5549,4.421136,0.1060238,0.69031896,144.3192,07/23.0/2025,2000,g 17.0,4.0
# From MPEC 2024-C04
425P/Kowalski,e,16.4130,210.0877,200.9974,6.352116,0.0615639,0.54367267,86.2550,07/23.0/2025,2000,g 12.0,4.0
# From MPEC 2024-N80
426P/PANSTARRS,e,17.7841,280.3964,118.3879,3.185833,0.1733283,0.16101951,118.1590,07/23.0/2025,2000,g 13.5,4.0
# From MPEC 2023-J29
428P/Gibbs,e,8.5027,299.3096,36.8935,3.488629,0.1512593,0.51817753,231.7360,07/23.0/2025,2000,g 15.0,4.0
# From MPEC 2024-EF7
429P/LINEAR-Hill,e,7.5141,322.0108,75.7403,3.555945,0.1469845,0.49080861,190.7653,07/23.0/2025,2000,g 15.5,4.0
# From MPEC 2022-L66
430P/Scotti,e,4.4757,54.6448,94.4564,3.103139,0.1803027,0.50031357,239.4738,07/23.0/2025,2000,g 16.5,4.0
# From MPEC 2025-A40
431P/Scotti,e,22.3793,202.8372,200.0046,3.477094,0.1520126,0.47731535,190.8517,07/23.0/2025,2000,g 14.0,4.0
# From MPEC 2021-U31
432P/PANSTARRS,e,10.0678,239.1307,105.2656,3.038424,0.1860937,0.24081662,265.0136,07/23.0/2025,2000,g 17.0,4.0
# From MPEC 2024-D33
434P/Tenagra,e,6.3364,288.9118,128.4531,4.136111,0.1171698,0.27427846,159.9245,07/23.0/2025,2000,g 13.0,4.0
# From MPEC 2021-W31
435P/PANSTARRS,e,18.8746,98.5240,244.2050,3.021726,0.1876383,0.31753944,273.5646,07/23.0/2025,2000,g 17.0,4.0
# From MPEC 2022-X67
436P/Garradd,e,20.1993,87.1561,282.7645,5.936867,0.0681347,0.66901327,90.1612,07/23.0/2025,2000,g 14.5,4.0
# From MPEC 2023-B57
437P/Lemmon-PANSTARRS,e,3.6890,245.8407,207.0723,4.569172,0.1009132,0.25504494,107.7434,07/23.0/2025,2000,g 13.0,4.0
# From MPEC 2025-A40
438P/Christensen,e,8.2807,260.1083,58.9813,3.852772,0.1303299,0.41412685,252.5908,07/23.0/2025,2000,g 14.5,4.0
# From MPEC 2022-C56
439P/LINEAR,e,7.1118,56.4379,342.1067,3.491900,0.1510468,0.46906550,215.4890,07/23.0/2025,2000,g 13.5,4.0
# From MPEC 2024-N80
440P/Kobayashi,e,12.3515,328.8021,183.3026,8.579467,0.0392205,0.76088601,47.4793,07/23.0/2025,2000,g 15.5,4.0
# From MPC185666
441P/PANSTARRS,e,2.5744,143.5866,178.8687,4.132048,0.1173427,0.19460606,354.3212,07/23.0/2025,2000,g 13.5,4.0
# From MPEC 2024-N80
442P/McNaught,e,6.0575,31.9409,310.6347,4.954076,0.0893841,0.53258548,95.6772,07/23.0/2025,2000,g 13.5,4.0
# From MPEC 2024-TD8
443P/PANSTARRS-Christensen,e,19.8880,108.9334,145.0698,4.124602,0.1176606,0.28290603,119.7377,07/23.0/2025,2000,g 13.5,4.0
# From MPEC 2023-VM5
